[
    {
        "Altitude(m)": 605459.0018980436,
        "Argument of Periapsis(deg)": 0.0,
        "Eccentricity": 0.0,
        "Inclination(deg)": 60.0,
        "Latitude(deg)": 27.988126659900416,
        "Longitude(deg)": -82.20141887456874,
        "Mean Anomaly(deg)": 32.7273,
        "RAAN(deg)": 0.0,
        "Satellite Name": "Test1 2",
        "Satellite Number": 2,
        "Semi-Major Axis(m)": 6980739.136638005,
        "Time(s)": 0
    },
    {
        "Altitude(m)": 605535.7926095906,
        "Argument of Periapsis(deg)": 0.00010418945913296404,
        "Eccentricity": 0.0,
        "Inclination(deg)": 60.0,
        "Latitude(deg)": 28.501256221820547,
        "Longitude(deg)": -81.8444741688635,
        "Mean Anomaly(deg)": 33.347406145461825,
        "RAAN(deg)": -0.0004200491397426661,
        "Satellite Name": "Test1 2",
        "Satellite Number": 2,
        "Semi-Major Axis(m)": 6980739.136638005,
        "Time(s)": 10
    }
]